O3B MPOWER F1           
1 54755U 22174A   24192.33711838 -.00000024  00000+0  00000+0 0  9999
2 54755   0.0601 351.4710 0006825 115.9111 267.1816  5.00114153 29996
